IRIDIUM 116             
1 43072U 17083C   24356.62522085  .00000085  00000+0  23130-4 0  9990
2 43072  86.3985 188.7566 0001908  94.7285 265.4129 14.34217814366404
IRIDIUM 130             
1 43073U 17083D   24356.94235074  .00000149  00000+0  46066-4 0  9999
2 43073  86.3993 188.8464 0001786  88.8950 271.2451 14.34218193366391
IRIDIUM 151             
1 43074U 17083E   24356.63790961  .00000146  00000+0  44994-4 0  9992
2 43074  86.3987 188.7968 0002098  92.4113 267.7323 14.34219844366372
IRIDIUM 134             
1 43075U 17083F   24357.44341220  .00000104  00000+0  30240-4 0  9996
2 43075  86.3989 188.4611 0001877  91.1046 269.0365 14.34217397366453
IRIDIUM 137             
1 43076U 17083G   24356.61887793  .00000182  00000+0  57920-4 0  9995
2 43076  86.3990 188.8868 0002188 103.4135 256.7305 14.34217783366407
IRIDIUM 141             
1 43077U 17083H   24356.61253544  .00000086  00000+0  23677-4 0  9992
2 43077  86.3987 188.7513 0002030  79.6177 280.5248 14.34217473366403
IRIDIUM 153             
1 43078U 17083J   24357.40193346  .00000183  00000+0  58412-4 0  9997
2 43078  86.3988 156.9477 0002230  76.4770 283.6674 14.34217269367622
IRIDIUM 131             
1 43079U 17083K   24357.50683513  .00000077  00000+0  20363-4 0  9995
2 43079  86.3990 188.5276 0002178  87.5016 272.6429 14.34217141366467
